STARLINK-32083          
1 60343U 24136Q   26068.41891935 -.00000423  00000+0 -21426-5 0  9994
2 60343  53.1608  76.8469 0001316  87.1996 272.9155 15.30191097 89624
TEVEL2-8                
1 63239U 25052AF  26068.66815442  .00019130  00000+0  69304-3 0  9993
2 63239  97.4055 324.2923 0008031 124.9191 235.2804 15.28392908 54807
